#dP2019  7 27  0  0  0.00000000      96 __u+U IGS08 FIT  IAC
## 2063 518400.00000000   900.00000000 58691 0.0000000000000
+   56   G01G02G03G04G05G06G07G08G09G10G11G12G13G14G15G16G17
+        G18G19G20G21G22G23G24G25G26G27G28G29G30G31G32R01R02
+        R03R04R05R07R08R09R10R11R12R13R14R15R16R17R18R19R20
+        R21R22R23R24R26  0  0  0  0  0  0  0  0  0  0  0  0
+          0  0  0  0  0  0  0  0  0  0  0  0  0  0  0  0  0
++         0  0  0  0  0  0  0  0  0  0  0  0  0  0  0  0  0
++         0  0  0  0  0  0  0  0  0  0  0  0  0  0  0  0  0
++         0  0  0  0  0  0  0  0  0  0  0  0  0  0  0  0  0
++         0  0  0  0  0  0  0  0  0  0  0  0  0  0  0  0  0
++         0  0  0  0  0  0  0  0  0  0  0  0  0  0  0  0  0
%c M  cc GPS ccc cccc cccc cccc cccc ccccc ccccc ccccc ccccc
%c cc cc ccc ccc cccc cccc cccc cccc ccccc ccccc ccccc ccccc
%f  1.2500000  1.025000000  0.00000000000  0.000000000000000
%f  0.0000000  0.000000000  0.00000000000  0.000000000000000
%i    0    0    0    0      0      0      0      0         0
%i    0    0    0    0      0      0      0      0         0
/* INFORMATION & ANALYSIS CENTER (IAC)            FINAL DATA
/* S/V CLOCKS ARE ALIGNED TO GPS & GLONASS TIME RESPECTIVELY
/* USING THE BROADCAST EPHEMERIS                            
/* PCV:IGS14_2056 OL/AL:FES2004  NONE     YN ORB:CoN CLK:CoN
*  2019 07 27 23  0  0.00000000
PG01 -10701.999531  20489.104015 -12981.366406    -79.485922
PG02  21154.740604 -14403.974800  -6209.004276   -269.860209
PG03  -1291.711661  15470.273036 -21608.172894    178.498543
PG04 -14990.396648   2539.835075  21503.913526     30.678257
PG05  21054.172903  -4785.088526  15476.209795     -0.221133
PG06  19599.682381   -866.548712 -17878.826451     -6.951263
PG07   3986.754234  15999.089615  21001.274955    -73.148312
PG08  -6375.862564  20831.814249  15078.153642     -0.441573
PG09   8242.151243  24829.164066   4516.818470    361.278431
PG10 -23716.298888 -11466.646622   4235.283860    -31.188307
PG11  -7678.689897  25327.199037  -4121.259982   -550.370500
PG12   5144.555938 -13938.088930 -22233.222173    219.761058
PG13  12919.141703 -11983.342173  19746.464173    -52.559958
PG14 -15242.027334  -4325.622104 -21017.964603    -69.456737
PG15   4802.047403 -21618.525745  14105.049191   -298.077415
PG16 -21501.970755   1632.056763  15599.874921    -59.895364
PG17  13854.455225  13070.931205 -18142.684442     96.292582
PG18 -16352.659858  20345.598594  -5045.365746     73.291231
PG19  14870.319382   6137.586424 -21429.043108   -288.593716
PG20 -18599.508746 -13937.615661  12897.536510    526.182825
PG21  -9178.506183 -13065.979369  22032.088117   -146.835459
PG22  -9428.012954  13440.288129 -20640.234409   -736.674619
PG23   -455.269204  25131.124705  -7596.364434   -175.143087
PG24  12003.559164 -21394.947391  -9901.087124    -69.380720
PG25  -9763.989453 -16868.677860 -18368.436920     -3.831398
PG26 -25613.727286  -3436.255310   6505.927243      1.071336
PG27 -12976.454973   8677.966173  21326.466827     -6.563368
PG28  22253.656250  13774.023207   4794.618228    765.822404
PG29  -4109.331999 -26184.818309   1530.841258    140.270560
PG30  14037.277102   8440.263186  20969.396952     -7.715592
PG31 -20947.970539   2047.545247 -16465.442694     21.369679
PG32 -15243.338403 -12323.379180 -17913.506893     14.197873
PR01   8365.903087  19241.733325 -14513.610648     47.327559
PR02  18469.015055  16680.032487   5517.937633    380.425041
PR03  15884.480453   3602.008765  19658.219036     -0.989362
PR04   3579.362787 -11883.162515  22307.258203    315.441845
PR05  -9991.531352 -19848.355334  12556.142658     32.719736
PR07 -15670.088106  -3261.329999 -19835.766828    -24.102959
PR08  -4211.907366  11287.236118 -22427.029557     16.516919
PR09 -20479.988041  -3033.463937 -14833.604026     82.343802
PR10 -25023.885253   4623.870336   -831.206717     55.379825
PR11 -15962.378950  11420.677399  16277.906069    -74.084864
PR12   1209.316895  10861.190708  23079.503104     47.549610
PR13  19016.386437   3753.110214  16576.020603    -26.405675
PR14  25022.286894  -4977.800534    632.676602     41.377836
PR15  16811.242386 -11091.995854 -15632.821921    103.292929
PR16  -1747.111192 -10944.525677 -22990.225970      6.964982
PR17  12535.350595  -7416.261633 -20927.817584    247.139557
PR18  11100.214490 -21387.810782  -8441.411267      1.765768
PR19   4350.181665 -23653.885928   8485.993925    -44.714282
PR20  -6365.246933 -11403.329291  21920.497668   -385.622547
PR21 -12568.905002   8205.119374  20626.530513    -62.401452
PR22 -10289.278888  22552.902769   5743.267524    -30.397147
PR23   -814.528449  21639.594445 -13496.690745    243.435587
PR24   7554.576487   9383.288170 -22513.853815   -183.078063
PR26  -5155.171325 -14019.303933  20674.868356    -14.177564
*  2019 07 27 23 15  0.00000000
PG01 -11817.573270  21231.604652 -10526.086482    -79.495843
PG02  20698.956532 -13535.564898  -8880.810860   -269.868164
PG03  -3654.172238  14734.170874 -21843.445240    178.496220
PG04 -15764.326531    162.877485  21150.752778     30.712963
PG05  22598.456539  -4128.560498  13380.046812     -0.221271
PG06  18099.279187    657.346127 -19398.689529     -6.961586
PG07   2189.375738  17447.675040  20035.735894    -73.155218
PG08  -6956.282038  19079.862934  17036.092150     -0.443560
PG09   8053.590932  25244.123148   1707.359632    361.270683
PG10 -23047.362305 -11489.253307   6988.992942    -31.200510
PG11  -8119.296897  25430.824757  -1409.492763   -550.361871
PG12   7452.112474 -13013.726429 -22124.420153    219.757785
PG13  13223.802509  -9660.543776  20789.513798    -52.558269
PG14 -15502.148548  -6735.756351 -20206.537836    -69.455053
PG15   5611.787369 -19996.260551  16064.009428   -298.075456
PG16 -22997.715734    874.150891  13439.438538    -59.898483
PG17  14061.575440  15103.252852 -16365.266479     96.299209
PG18 -16802.725670  20410.516193  -2234.443567     73.293718
PG19  15076.350526   8458.827387 -20454.308847   -288.589334
PG20 -16968.401582 -13884.206647  14999.905133    526.183056
PG21  -7529.602812 -14716.612130  21611.828651   -146.829020
PG22 -11716.340451  12790.210541 -19867.203227   -736.678902
PG23  -1010.875352  24160.662528 -10179.528573   -175.141602
PG24  12914.043339 -21870.119501  -7311.916209    -69.382034
PG25  -7703.181117 -16309.182549 -19792.289963     -3.833687
PG26 -26105.406524  -3850.843121   3760.990947      1.079560
PG27 -13562.158670   6254.821228  21828.388543     -6.573233
PG28  21593.203993  13698.781821   7582.100894    765.821830
PG29  -3927.546051 -26225.426203  -1374.393957    140.261565
PG30  12206.418451  10026.900631  21394.831099     -7.722457
PG31 -19544.474877    663.802187 -18175.284181     21.367554
PG32 -15520.198819 -14268.253206 -16163.441495     14.211282
PR01   7064.502724  17807.213672 -16846.344491     47.328473
PR02  18906.131728  16926.895624   2348.542024    380.427248
PR03  17541.777633   5203.551620  17794.725405     -0.989137
PR04   5494.637911  -9862.838625  22893.932068    315.442609
PR05  -8899.530095 -18531.716423  15127.445406     32.720114
PR07 -17352.904748  -4893.149004 -18023.229899    -24.102994
PR08  -6146.951466   9248.190595 -22907.960968     16.517077
PR09 -18542.394848  -3432.026611 -17122.683926     82.345766
PR10 -24693.667515   4719.085518  -4044.176949     55.379590
PR11 -17743.646497  11957.365012  13862.339792    -74.086433
PR12  -1521.223393  11560.178495  22719.349058     47.552420
PR13  16885.829698   4204.203796  18643.322733    -26.406914
PR14  24723.706401  -5049.311026   3824.560642     41.378375
PR15  18510.690459 -11630.303795 -13125.012765    103.293052
PR16    967.886816 -11678.698045 -22663.399248      6.964513
PR17  11723.383489  -4882.809559 -22112.473226    247.142419
PR18  10574.823942 -20267.284140 -11366.046344      1.767019
PR19   4414.123549 -24534.470455   5390.108585    -44.716279
PR20  -5649.793584 -13933.240651  20619.329596   -385.623830
PR21 -11751.584275   5705.951573  21908.482816    -62.403460
PR22  -9845.751866  21742.600499   8828.046953    -30.398886
PR23  -1069.191293  23123.461722 -10732.606672    243.438085
PR24   6844.039369  11999.826817 -21472.090959   -183.078747
PR26  -4561.313366 -16399.204031  18992.658942    -14.179150
EOF
